HIMAWARI-8              
1 40267U 14060A   24132.87063552 -.00000280  00000+0  00000+0 0  9997
2 40267   0.0480 118.2465 0000949 335.0679 230.9025  1.00271018 35071
